[{"OBJECT_NAME":"GAOFEN-3 02","OBJECT_ID":"2021-109A","EPOCH":"2026-03-09T23:26:55.915584","MEAN_MOTION":14.42215794,"ECCENTRICITY":0.00015915,"INCLINATION":98.4134,"RA_OF_ASC_NODE":78.4682,"ARG_OF_PERICENTER":307.7744,"MEAN_ANOMALY":52.3302,"EPHEMERIS_TYPE":0,"CLASSIFICATION_TYPE":"U","NORAD_CAT_ID":49495,"ELEMENT_SET_NO":999,"REV_AT_EPOCH":22601,"BSTAR":5.592981e-6,"MEAN_MOTION_DOT":-2.5e-7,"MEAN_MOTION_DDOT":0},{"OBJECT_NAME":"SL-8 R\/B","OBJECT_ID":"1981-084B","EPOCH":"2026-03-09T21:18:58.649184","MEAN_MOTION":14.39009336,"ECCENTRICITY":0.00132018,"INCLINATION":74.0278,"RA_OF_ASC_NODE":283.3292,"ARG_OF_PERICENTER":158.9678,"MEAN_ANOMALY":201.2022,"EPHEMERIS_TYPE":0,"CLASSIFICATION_TYPE":"U","NORAD_CAT_ID":12792,"ELEMENT_SET_NO":999,"REV_AT_EPOCH":33290,"BSTAR":8.6476642e-5,"MEAN_MOTION_DOT":2.41e-6,"MEAN_MOTION_DDOT":0}]
